OBJECT_NAME,OBJECT_ID,EPOCH,MEAN_MOTION,ECCENTRICITY,INCLINATION,RA_OF_ASC_NODE,ARG_OF_PERICENTER,MEAN_ANOMALY,EPHEMERIS_TYPE,CLASSIFICATION_TYPE,NORAD_CAT_ID,ELEMENT_SET_NO,REV_AT_EPOCH,BSTAR,MEAN_MOTION_DOT,MEAN_MOTION_DDOT
YAM-3,2021-059AN,2026-06-16T02:21:03.790656,15.48535700,.0005055,97.6987,353.9815,14.3719,345.7674,0,U,48915,999,27682,.183E-3,.9647E-4,0
FARADAY_PHOENIX,2021-059AX,2026-06-16T01:47:50.553024,15.78206981,.0002833,97.6795,4.9796,304.7672,55.3327,0,U,48924,999,27748,.72799E-3,.125674E-2,0
DEMO8 (TENZING),2021-059CA,2026-06-16T01:59:28.557024,15.54958033,.0006304,97.7016,0.4180,0.3164,359.8092,0,U,48951,999,27713,.26315E-3,.17534E-3,0
NAPA-2,2021-059CN,2026-06-16T04:39:44.487360,16.00182599,.0003277,97.6640,6.2408,237.4656,122.6305,0,U,48963,999,27765,.61463E-3,.314145E-2,.43679E-4
FENGYUN 3E,2021-062A,2026-06-16T03:28:21.481248,14.19903809,.000284,98.7485,170.5642,87.4763,272.6738,0,U,49008,999,25643,.26839E-4,.13E-6,0
ISS (NAUKA),2021-066A,2026-06-16T02:13:48.364032,15.49253146,.0004806,51.6337,305.5091,191.3253,168.7628,0,U,49044,999,57130,.14355E-3,.7536E-4,0
STARLINK-3100,2021-082Q,2026-06-16T02:32:07.319328,14.98326641,.0002989,70.0000,46.3065,270.2249,89.8567,0,U,49144,999,26072,.22598E-4,.177E-5,0
CUTE,2021-088D,2026-06-15T20:50:30.590304,15.92828899,.0007652,97.4158,266.0349,231.2987,128.7604,0,U,49263,999,26234,.4178E-3,.143267E-2,.98418E-5
2021-091B,2021-091B,2026-06-16T04:52:53.484384,15.18546526,.0014648,97.4462,354.7929,48.3268,311.9217,0,U,49316,999,25883,.71651E-4,.1415E-4,0
SDGSAT 1,2021-100A,2026-06-16T04:15:35.705376,15.19925772,.0006421,97.2636,214.1648,304.2870,55.7757,0,U,49387,999,25576,.12741E-3,.2673E-4,0
TEIKYOSAT-4 (OORURI),2021-102B,2026-06-15T23:50:59.625888,15.09504814,.0010551,97.3671,196.5236,301.5704,58.4494,0,U,49396,999,25254,.88937E-4,.1366E-4,0
Z-SAT,2021-102E,2026-06-16T03:26:36.248640,15.18258190,.001484,97.3322,202.4977,248.7365,111.2285,0,U,49399,999,25328,.16281E-3,.3277E-4,0
HIBARI,2021-102F,2026-06-16T02:11:36.197952,15.31712161,.0011278,97.3234,213.0071,195.6037,164.4859,0,U,49400,999,25402,.31368E-3,.9548E-4,0
KOSEN-1,2021-102H,2026-06-16T02:13:58.730304,15.26822838,.0013074,97.3180,209.2714,204.4392,155.6229,0,U,49402,999,25385,.23118E-3,.6035E-4,0
GLOBAL-14,2021-106A,2026-06-16T01:19:49.653120,15.50554066,.0015944,42.0043,297.8062,10.9627,349.1561,0,U,49469,999,25795,.3923E-3,.22875E-3,0
GAOFEN-3 02,2021-109A,2026-06-16T05:11:34.824192,14.42216739,.0002999,98.4081,175.3267,19.6585,340.4720,0,U,49495,999,24017,-.59681E-5,-.63E-6,0
GLOBAL-12,2021-115BA,2026-06-15T23:31:03.328032,15.53534140,.0003172,53.1957,50.3459,67.0610,293.0736,0,U,49772,999,25571,.4381E-3,.27969E-3,0
GLOBAL-13,2021-115BB,2026-06-16T00:29:56.116032,15.46003457,.0003855,53.1984,60.1328,107.1655,252.9775,0,U,49773,999,25558,.33167E-3,.16047E-3,0
GLOBAL-17,2021-120A,2026-06-15T23:52:40.713024,15.52200339,.001556,41.9956,56.3988,249.2988,110.6188,0,U,49949,999,25471,.3771E-3,.23325E-3,0
GLOBAL-16,2021-120B,2026-06-16T00:09:42.978816,15.50127781,.0013429,41.9966,60.0373,241.0870,118.8627,0,U,49950,999,25466,.36659E-3,.20995E-3,0
XW-3 (CAS-9),2021-131B,2026-06-16T05:19:04.598400,14.41356734,.0005382,98.4988,259.6162,99.2852,260.8946,0,U,50466,999,23497,.13817E-3,.403E-5,0
ION SCV-004,2022-002K,2026-06-15T17:32:29.686560,15.30439875,.00073445,97.2836,224.4168,13.0684,347.0746,0,U,50993,999,24507,.15820548E-3,.4584E-4,0
ETV-A1,2022-002CE,2026-06-16T04:03:56.815776,15.40665972,.0004638,97.2880,233.4774,7.2493,352.8820,0,U,51060,999,24568,.24721E-3,.10003E-3,0
BRO-5,2022-002CF,2026-06-16T03:38:16.636416,15.47315413,.0003747,97.2999,240.8113,335.7905,24.3169,0,U,51061,999,24609,.5345E-3,.2725E-3,0
LUDI TANCE 1-01A (L-SAR 01A),2022-007A,2026-06-16T04:08:43.352736,14.88420905,.0001585,97.8097,174.6071,90.8362,269.3036,0,U,51284,999,23832,.64335E-4,.542E-5,0
LUDI TANCE 1-01B (L-SAR 01B),2022-018A,2026-06-16T04:57:07.109856,14.88417394,.0001614,97.8103,174.6366,92.1453,267.9948,0,U,51822,999,23356,.59799E-4,.5E-5,0
2022-023F,2022-023F,2026-06-16T03:45:02.865024,15.18066576,.0129859,63.4457,276.9846,342.4283,17.2356,0,U,51951,999,23755,.48416E-3,.12144E-3,0
