YAM-3                   
1 48915U 21059AN  26167.09796054  .00009647  00000+0  18300-3 0  9996
2 48915  97.6987 353.9815 0005055  14.3719 345.7674 15.48535700276828
FARADAY_PHOENIX         
1 48924U 21059AX  26167.07489066  .00125674  00000+0  72799-3 0  9997
2 48924  97.6795   4.9796 0002833 304.7672  55.3327 15.78206981277482
DEMO8 (TENZING)         
1 48951U 21059CA  26167.08296941  .00017534  00000+0  26315-3 0  9994
2 48951  97.7016   0.4180 0006304   0.3164 359.8092 15.54958033277138
NAPA-2                  
1 48963U 21059CN  26167.19426490  .00314145  43679-4  61463-3 0  9998
2 48963  97.6640   6.2408 0003277 237.4656 122.6305 16.00182599277653
FENGYUN 3E              
1 49008U 21062A   26167.14469307  .00000013  00000+0  26839-4 0  9993
2 49008  98.7485 170.5642 0002840  87.4763 272.6738 14.19903809256437
ISS (NAUKA)             
1 49044U 21066A   26167.09292088  .00007536  00000+0  14355-3 0  9997
2 49044  51.6337 305.5091 0004806 191.3253 168.7628 15.49253146571307
STARLINK-3100           
1 49144U 21082Q   26167.10564027  .00000177  00000+0  22598-4 0  9996
2 49144  70.0000  46.3065 0002989 270.2249  89.8567 14.98326641260723
CUTE                    
1 49263U 21088D   26166.86840961  .00143267  98418-5  41780-3 0  9997
2 49263  97.4158 266.0349 0007652 231.2987 128.7604 15.92828899262348
2021-091B               
1 49316U 21091B   26167.20339681  .00001415  00000+0  71651-4 0  9994
2 49316  97.4462 354.7929 0014648  48.3268 311.9217 15.18546526258833
SDGSAT 1                
1 49387U 21100A   26167.17749659  .00002673  00000+0  12741-3 0  9990
2 49387  97.2636 214.1648 0006421 304.2870  55.7757 15.19925772255768
TEIKYOSAT-4 (OORURI)    
1 49396U 21102B   26166.99374567  .00001366  00000+0  88937-4 0  9992
2 49396  97.3671 196.5236 0010551 301.5704  58.4494 15.09504814252549
Z-SAT                   
1 49399U 21102E   26167.14347510  .00003277  00000+0  16281-3 0  9996
2 49399  97.3322 202.4977 0014840 248.7365 111.2285 15.18258190253285
HIBARI                  
1 49400U 21102F   26167.09139118  .00009548  00000+0  31368-3 0  9996
2 49400  97.3234 213.0071 0011278 195.6037 164.4859 15.31712161254029
KOSEN-1                 
1 49402U 21102H   26167.09304086  .00006035  00000+0  23118-3 0  9998
2 49402  97.3180 209.2714 0013074 204.4392 155.6229 15.26822838253851
GLOBAL-14               
1 49469U 21106A   26167.05543580  .00022875  00000+0  39230-3 0  9997
2 49469  42.0043 297.8062 0015944  10.9627 349.1561 15.50554066257953
GAOFEN-3 02             
1 49495U 21109A   26167.21637528 -.00000063  00000+0 -59681-5 0  9994
2 49495  98.4081 175.3267 0002999  19.6585 340.4720 14.42216739240170
GLOBAL-12               
1 49772U 21115BA  26166.97989963  .00027969  00000+0  43810-3 0  9991
2 49772  53.1957  50.3459 0003172  67.0610 293.0736 15.53534140255711
GLOBAL-13               
1 49773U 21115BB  26167.02078838  .00016047  00000+0  33167-3 0  9998
2 49773  53.1984  60.1328 0003855 107.1655 252.9775 15.46003457255585
GLOBAL-17               
1 49949U 21120A   26166.99491566  .00023325  00000+0  37710-3 0  9996
2 49949  41.9956  56.3988 0015560 249.2988 110.6188 15.52200339254713
GLOBAL-16               
1 49950U 21120B   26167.00674744  .00020995  00000+0  36659-3 0  9993
2 49950  41.9966  60.0373 0013429 241.0870 118.8627 15.50127781254667
XW-3 (CAS-9)            
1 50466U 21131B   26167.22158100  .00000403  00000+0  13817-3 0  9999
2 50466  98.4988 259.6162 0005382  99.2852 260.8946 14.41356734234971
ION SCV-004             
1 50993U 22002K   26166.73089915  .00004584  00000+0  15821-3 0  9995
2 50993  97.2836 224.4168 0007344  13.0684 347.0746 15.30439875245074
ETV-A1                  
1 51060U 22002CE  26167.16940759  .00010003  00000+0  24721-3 0  9993
2 51060  97.2880 233.4774 0004638   7.2493 352.8820 15.40665972245682
BRO-5                   
1 51061U 22002CF  26167.15158144  .00027250  00000+0  53450-3 0  9995
2 51061  97.2999 240.8113 0003747 335.7905  24.3169 15.47315413246092
LUDI TANCE 1-01A (L-SA*)
1 51284U 22007A   26167.17272399  .00000542  00000+0  64335-4 0  9998
2 51284  97.8097 174.6071 0001585  90.8362 269.3036 14.88420905238323
LUDI TANCE 1-01B (L-SA*)
1 51822U 22018A   26167.20633229  .00000500  00000+0  59799-4 0  9997
2 51822  97.8103 174.6366 0001614  92.1453 267.9948 14.88417394233560
2022-023F               
1 51951U 22023F   26167.15628316  .00012144  00000+0  48416-3 0  9991
2 51951  63.4457 276.9846 0129859 342.4283  17.2356 15.18066576237555
